{
 "generated_at": "2026-06-11T23:47:41Z",
 "sources": [
  {
   "name": "CelesTrak",
   "url": "https://celestrak.org/NORAD/elements/",
   "license": "frei verfügbar; Attribution. Ursprünglich USSPACECOM/Space-Track."
  },
  {
   "name": "GCAT (J. McDowell, planet4589.org)",
   "url": "https://planet4589.org/space/gcat/",
   "license": "CC-BY 4.0"
  }
 ],
 "satellites": [
  {
   "norad": 41884,
   "name": "CYGFM05",
   "intl": "2016-078A",
   "group": "weather",
   "gcat": {
    "class": "C",
    "category": "EOSCI",
    "owner": "LARCN/SWRIB",
    "state": "US"
   },
   "omm": {
    "OBJECT_NAME": "CYGFM05",
    "OBJECT_ID": "2016-078A",
    "EPOCH": "2026-06-11T15:55:53.238432",
    "MEAN_MOTION": 15.56428769,
    "ECCENTRICITY": 0.0006776,
    "INCLINATION": 34.9572,
    "RA_OF_ASC_NODE": 297.1583,
    "ARG_OF_PERICENTER": 93.9332,
    "MEAN_ANOMALY": 266.2167,
    "EPHEMERIS_TYPE": 0,
    "CLASSIFICATION_TYPE": "U",
    "NORAD_CAT_ID": 41884,
    "ELEMENT_SET_NO": 999,
    "REV_AT_EPOCH": 52789,
    "BSTAR": 0.00030903,
    "MEAN_MOTION_DOT": 0.00022604,
    "MEAN_MOTION_DDOT": 0
   }
  },
  {
   "norad": 41890,
   "name": "CYGFM07",
   "intl": "2016-078G",
   "group": "weather",
   "gcat": {
    "class": "C",
    "category": "EOSCI",
    "owner": "LARCN/SWRIB",
    "state": "US"
   },
   "omm": {
    "OBJECT_NAME": "CYGFM07",
    "OBJECT_ID": "2016-078G",
    "EPOCH": "2026-06-11T12:27:49.971168",
    "MEAN_MOTION": 15.59825422,
    "ECCENTRICITY": 0.0006376,
    "INCLINATION": 34.9452,
    "RA_OF_ASC_NODE": 267.2924,
    "ARG_OF_PERICENTER": 139.1708,
    "MEAN_ANOMALY": 220.9495,
    "EPHEMERIS_TYPE": 0,
    "CLASSIFICATION_TYPE": "U",
    "NORAD_CAT_ID": 41890,
    "ELEMENT_SET_NO": 999,
    "REV_AT_EPOCH": 52811,
    "BSTAR": 0.00030112,
    "MEAN_MOTION_DOT": 0.00025052,
    "MEAN_MOTION_DDOT": 0
   }
  },
  {
   "norad": 41888,
   "name": "CYGFM08",
   "intl": "2016-078E",
   "group": "weather",
   "gcat": {
    "class": "C",
    "category": "EOSCI",
    "owner": "LARCN/SWRIB",
    "state": "US"
   },
   "omm": {
    "OBJECT_NAME": "CYGFM08",
    "OBJECT_ID": "2016-078E",
    "EPOCH": "2026-06-11T14:58:19.605792",
    "MEAN_MOTION": 15.5973117,
    "ECCENTRICITY": 0.0007813,
    "INCLINATION": 34.9433,
    "RA_OF_ASC_NODE": 278.2499,
    "ARG_OF_PERICENTER": 121.6627,
    "MEAN_ANOMALY": 238.4861,
    "EPHEMERIS_TYPE": 0,
    "CLASSIFICATION_TYPE": "U",
    "NORAD_CAT_ID": 41888,
    "ELEMENT_SET_NO": 999,
    "REV_AT_EPOCH": 52810,
    "BSTAR": 0.00033436,
    "MEAN_MOTION_DOT": 0.00027747,
    "MEAN_MOTION_DDOT": 0
   }
  },
  {
   "norad": 35681,
   "name": "DEIMOS-1",
   "intl": "2009-041A",
   "group": "resource",
   "gcat": {
    "class": "B",
    "category": "IMG",
    "owner": "DEIMOS",
    "state": "E"
   },
   "omm": {
    "OBJECT_NAME": "DEIMOS-1",
    "OBJECT_ID": "2009-041A",
    "EPOCH": "2026-06-11T16:37:01.157664",
    "MEAN_MOTION": 14.75233344,
    "ECCENTRICITY": 0.00013,
    "INCLINATION": 97.7397,
    "RA_OF_ASC_NODE": 320.1589,
    "ARG_OF_PERICENTER": 137.8352,
    "MEAN_ANOMALY": 222.2958,
    "EPHEMERIS_TYPE": 0,
    "CLASSIFICATION_TYPE": "U",
    "NORAD_CAT_ID": 35681,
    "ELEMENT_SET_NO": 999,
    "REV_AT_EPOCH": 90607,
    "BSTAR": 0.0001236,
    "MEAN_MOTION_DOT": 0.00000788,
    "MEAN_MOTION_DDOT": 0
   }
  },
  {
   "norad": 40013,
   "name": "DEIMOS-2",
   "intl": "2014-033D",
   "group": "resource",
   "gcat": {
    "class": "B",
    "category": "IMG",
    "owner": "ELDEC",
    "state": "E"
   },
   "omm": {
    "OBJECT_NAME": "DEIMOS-2",
    "OBJECT_ID": "2014-033D",
    "EPOCH": "2026-06-11T16:33:43.084800",
    "MEAN_MOTION": 14.9371363,
    "ECCENTRICITY": 0.0001949,
    "INCLINATION": 97.5847,
    "RA_OF_ASC_NODE": 37.3722,
    "ARG_OF_PERICENTER": 55.9114,
    "MEAN_ANOMALY": 304.2291,
    "EPHEMERIS_TYPE": 0,
    "CLASSIFICATION_TYPE": "U",
    "NORAD_CAT_ID": 40013,
    "ELEMENT_SET_NO": 999,
    "REV_AT_EPOCH": 63690,
    "BSTAR": 0.00010875,
    "MEAN_MOTION_DOT": 0.00001096,
    "MEAN_MOTION_DDOT": 0
   }
  },
  {
   "norad": 25757,
   "name": "DLR-TUBSAT",
   "intl": "1999-029B",
   "group": "resource",
   "gcat": {
    "class": null,
    "category": null,
    "owner": null,
    "state": null
   },
   "omm": {
    "OBJECT_NAME": "DLR-TUBSAT",
    "OBJECT_ID": "1999-029B",
    "EPOCH": "2026-06-11T13:48:46.719072",
    "MEAN_MOTION": 14.52425467,
    "ECCENTRICITY": 0.0014412,
    "INCLINATION": 98.6694,
    "RA_OF_ASC_NODE": 157.895,
    "ARG_OF_PERICENTER": 12.1658,
    "MEAN_ANOMALY": 347.9882,
    "EPHEMERIS_TYPE": 0,
    "CLASSIFICATION_TYPE": "U",
    "NORAD_CAT_ID": 25757,
    "ELEMENT_SET_NO": 999,
    "REV_AT_EPOCH": 43243,
    "BSTAR": 0.000031892,
    "MEAN_MOTION_DOT": 8.2e-7,
    "MEAN_MOTION_DDOT": 0
   }
  },
  {
   "norad": 28054,
   "name": "DMSP 5D-3 F16 (USA 172)",
   "intl": "2003-048A",
   "group": "weather",
   "gcat": {
    "class": null,
    "category": null,
    "owner": null,
    "state": null
   },
   "omm": {
    "OBJECT_NAME": "DMSP 5D-3 F16 (USA 172)",
    "OBJECT_ID": "2003-048A",
    "EPOCH": "2026-06-11T17:14:11.721408",
    "MEAN_MOTION": 14.14482632,
    "ECCENTRICITY": 0.0007478,
    "INCLINATION": 98.9891,
    "RA_OF_ASC_NODE": 186.5102,
    "ARG_OF_PERICENTER": 154.3447,
    "MEAN_ANOMALY": 268.3104,
    "EPHEMERIS_TYPE": 0,
    "CLASSIFICATION_TYPE": "U",
    "NORAD_CAT_ID": 28054,
    "ELEMENT_SET_NO": 999,
    "REV_AT_EPOCH": 16871,
    "BSTAR": 0.000021342,
    "MEAN_MOTION_DOT": -4e-8,
    "MEAN_MOTION_DDOT": 0
   }
  },
  {
   "norad": 29522,
   "name": "DMSP 5D-3 F17 (USA 191)",
   "intl": "2006-050A",
   "group": "weather",
   "gcat": {
    "class": "D",
    "category": "MET",
    "owner": "AFSMC",
    "state": "US"
   },
   "omm": {
    "OBJECT_NAME": "DMSP 5D-3 F17 (USA 191)",
    "OBJECT_ID": "2006-050A",
    "EPOCH": "2026-06-11T15:42:03.986784",
    "MEAN_MOTION": 14.14992259,
    "ECCENTRICITY": 0.0011294,
    "INCLINATION": 98.7378,
    "RA_OF_ASC_NODE": 169.3375,
    "ARG_OF_PERICENTER": 73.516,
    "MEAN_ANOMALY": 286.7254,
    "EPHEMERIS_TYPE": 0,
    "CLASSIFICATION_TYPE": "U",
    "NORAD_CAT_ID": 29522,
    "ELEMENT_SET_NO": 999,
    "REV_AT_EPOCH": 1164,
    "BSTAR": 0.000033349,
    "MEAN_MOTION_DOT": 2.1e-7,
    "MEAN_MOTION_DDOT": 0
   }
  },
  {
   "norad": 35951,
   "name": "DMSP 5D-3 F18 (USA 210)",
   "intl": "2009-057A",
   "group": "weather",
   "gcat": {
    "class": "D",
    "category": "MET",
    "owner": "AFSMC",
    "state": "US"
   },
   "omm": {
    "OBJECT_NAME": "DMSP 5D-3 F18 (USA 210)",
    "OBJECT_ID": "2009-057A",
    "EPOCH": "2026-06-11T16:42:09.150336",
    "MEAN_MOTION": 14.14893754,
    "ECCENTRICITY": 0.0009842,
    "INCLINATION": 98.9035,
    "RA_OF_ASC_NODE": 143.477,
    "ARG_OF_PERICENTER": 266.9953,
    "MEAN_ANOMALY": 93.0093,
    "EPHEMERIS_TYPE": 0,
    "CLASSIFICATION_TYPE": "U",
    "NORAD_CAT_ID": 35951,
    "ELEMENT_SET_NO": 999,
    "REV_AT_EPOCH": 85881,
    "BSTAR": 0.00014487,
    "MEAN_MOTION_DOT": 0.00000235,
    "MEAN_MOTION_DDOT": 0
   }
  },
  {
   "norad": 35682,
   "name": "DUBAISAT-1",
   "intl": "2009-041B",
   "group": "resource",
   "gcat": {
    "class": null,
    "category": null,
    "owner": null,
    "state": null
   },
   "omm": {
    "OBJECT_NAME": "DUBAISAT-1",
    "OBJECT_ID": "2009-041B",
    "EPOCH": "2026-06-11T09:23:16.958400",
    "MEAN_MOTION": 14.75114193,
    "ECCENTRICITY": 0.0011741,
    "INCLINATION": 98.0044,
    "RA_OF_ASC_NODE": 295.7128,
    "ARG_OF_PERICENTER": 90.1964,
    "MEAN_ANOMALY": 270.059,
    "EPHEMERIS_TYPE": 0,
    "CLASSIFICATION_TYPE": "U",
    "NORAD_CAT_ID": 35682,
    "ELEMENT_SET_NO": 999,
    "REV_AT_EPOCH": 90424,
    "BSTAR": 0.00010044,
    "MEAN_MOTION_DOT": 0.00000627,
    "MEAN_MOTION_DDOT": 0
   }
  }
 ]
}
